<!DOCTYPE html PUBLIC "-//W3C//DTD XHTML 1.0 Strict//EN" "http://www.w3.org/TR/xhtml1/DTD/xhtml1-strict.dtd">
<html xmlns="http://www.w3.org/1999/xhtml">
<head>
<meta http-equiv="Content-Type" content="text/html; charset=iso-8859-1"/>
<title>404 - File Not Found.</title>
<style type="text/css">
<!--
body{margin:0;font-size:.7em;font-family:Verdana, Arial, Helvetica, sans-serif;background:#EEEEEE;}
fieldset{padding:0 15px 10px 15px;}
h1{font-size:2.4em;margin:0;color:#FFF;}
h2{font-size:1.7em;margin:0;color:#CC0000;}
h3{font-size:1.2em;margin:10px 0 0 0;color:#000000;}
#header{width:96%;margin:0 0 0 0;padding:6px 2% 6px 2%;font-family:"trebuchet MS", Verdana, sans-serif;color:#FFF;
background-color:#555555;}
#content{margin:0 0 0 2%;position:relative;}
.content-container{background:#FFF;width:96%;margin-top:8px;padding:10px;position:relative;}
-->
</style>
</head>
<body>
<div id="header"><h1>Server Error</h1></div>
<div id="content">
 <div class="content-container"><fieldset>
  <h2>404 - File Not Found.</h2>
  <h3>File not found for celestrak.org/NORAD/elements/active.txt.</h3>
  <h3>Please contact <a href="mailto:ts.kelso@celestrak.org">ts.kelso@celestrak.org</a> if you have other questions.</h3>
 </fieldset></div>
</div>
</body>
</html>
BEIJING 1               
1 28890U 05043A   24020.80338332  .00000807  00000+0  16986-3 0  9994
2 28890  98.1806 144.9575 0015664 146.9598 213.2585 14.62101902972213
HJ-1A                   
1 33320U 08041A   24020.78281460  .00002346  00000+0  32165-3 0  9992
2 33320  97.6360  35.1859 0021629 132.6954 227.6085 14.79165720828410
HJ-1B                   
1 33321U 08041B   24020.82842189  .00001762  00000+0  23843-3 0  9993
2 33321  97.6338  39.7377 0038715 178.5554 181.5777 14.79673761828437
YAOGAN 4                
1 33446U 08061A   24020.76788676  .00002468  00000+0  33966-3 0  9997
2 33446  97.8697 315.6481 0016429  50.5208 309.7453 14.79076964815613
DEIMOS-1                
1 35681U 09041A   24020.78235283  .00001293  00000+0  20873-3 0  9990
2 35681  97.6755 210.7056 0002477 117.2437 242.9024 14.72951411777469
UK-DMC 2                
1 35683U 09041C   24020.78075343  .00001767  00000+0  28383-3 0  9991
2 35683  97.7565 174.8012 0001270  99.9286 260.2066 14.72775620777163
RISAT 1                 
1 38248U 12017A   24020.63605865  .00011204  00000+0  51942-3 0  9994
2 38248  97.5343  37.8682 0004884  61.2952 298.8773 15.20228487647001
DMC3-FM1                
1 40715U 15032A   24020.84003628  .00001409  00000+0  17859-3 0  9993
2 40715  97.7721 263.9414 0007161  64.2502 295.9451 14.83266588459582
DMC3-FM2                
1 40716U 15032B   24020.79582269  .00001439  00000+0  18213-3 0  9999
2 40716  97.7772 264.8710 0009106  67.1214 293.0960 14.83267935459571
DMC3-FM3                
1 40717U 15032C   24020.81753864  .00001412  00000+0  17888-3 0  9992
2 40717  97.7818 266.0873 0010572  63.7203 296.5096 14.83259674459586
